{
  "type": "FeatureCollection",
  "features": [
    {
      "type": "Feature",
      "properties": {
        "norad_id": 57400,
        "name": "TIANMU-1 08",
        "group": "weather",
        "lat": -59.24214332529494,
        "lon": 38.57126570631446,
        "alt_km": 494.57362698824636,
        "timestamp": "2025-12-02T06:27:52.664190+00:00",
        "meta_object_name": "TIANMU-1 08",
        "meta_object_id": "2023-101B",
        "meta_epoch": "2025-12-01T21:17:45.525408",
        "meta_mean_motion": 15.27808273,
        "meta_eccentricity": 0.0007427,
        "meta_inclination": 97.2888,
        "meta_ra_of_asc_node": 25.778,
        "meta_arg_of_pericenter": 114.3124,
        "meta_mean_anomaly": 245.8891,
        "meta_ephemeris_type": 0,
        "meta_classification_type": "U",
        "meta_norad_cat_id": 57400,
        "meta_element_set_no": 999,
        "meta_rev_at_epoch": 13149,
        "meta_bstar": 0.00031213,
        "meta_mean_motion_dot": 8.412e-05,
        "meta_mean_motion_ddot": 0,
        "tle_line1": "1 57400U 23101B   25335.88733247  .00008412  00000+0  31213-3 0  9990",
        "tle_line2": "2 57400  97.2888  25.7780 0007427 114.3124 245.8891 15.27808273131493"
      },
      "geometry": {
        "type": "Point",
        "coordinates": [
          38.57126570631446,
          -59.24214332529494
        ]
      }
    },
    {
      "type": "Feature",
      "properties": {
        "norad_id": 57401,
        "name": "TIANMU-1 09",
        "group": "weather",
        "lat": 11.43557116654146,
        "lon": 24.1879523073569,
        "alt_km": 484.6093682234059,
        "timestamp": "2025-12-02T06:27:52.664200+00:00",
        "meta_object_name": "TIANMU-1 09",
        "meta_object_id": "2023-101C",
        "meta_epoch": "2025-12-01T20:58:59.101824",
        "meta_mean_motion": 15.27829153,
        "meta_eccentricity": 0.0006696,
        "meta_inclination": 97.2845,
        "meta_ra_of_asc_node": 25.2846,
        "meta_arg_of_pericenter": 113.5,
        "meta_mean_anomaly": 246.6944,
        "meta_ephemeris_type": 0,
        "meta_classification_type": "U",
        "meta_norad_cat_id": 57401,
        "meta_element_set_no": 999,
        "meta_rev_at_epoch": 13149,
        "meta_bstar": 0.00030891,
        "meta_mean_motion_dot": 8.328e-05,
        "meta_mean_motion_ddot": 0,
        "tle_line1": "1 57401U 23101C   25335.87429516  .00008328  00000+0  30891-3 0  9998",
        "tle_line2": "2 57401  97.2845  25.2846 0006696 113.5000 246.6944 15.27829153131494"
      },
      "geometry": {
        "type": "Point",
        "coordinates": [
          24.1879523073569,
          11.43557116654146
        ]
      }
    },
    {
      "type": "Feature",
      "properties": {
        "norad_id": 57402,
        "name": "TIANMU-1 10",
        "group": "weather",
        "lat": -4.174595409348304,
        "lon": -154.02611224723324,
        "alt_km": 484.03127075227803,
        "timestamp": "2025-12-02T06:27:52.664209+00:00",
        "meta_object_name": "TIANMU-1 10",
        "meta_object_id": "2023-101D",
        "meta_epoch": "2025-12-01T20:13:51.309408",
        "meta_mean_motion": 15.27819033,
        "meta_eccentricity": 0.0008431,
        "meta_inclination": 97.2927,
        "meta_ra_of_asc_node": 26.0923,
        "meta_arg_of_pericenter": 114.8462,
        "meta_mean_anomaly": 245.3655,
        "meta_ephemeris_type": 0,
        "meta_classification_type": "U",
        "meta_norad_cat_id": 57402,
        "meta_element_set_no": 999,
        "meta_rev_at_epoch": 13148,
        "meta_bstar": 0.00031547,
        "meta_mean_motion_dot": 8.508e-05,
        "meta_mean_motion_ddot": 0,
        "tle_line1": "1 57402U 23101D   25335.84295497  .00008508  00000+0  31547-3 0  9994",
        "tle_line2": "2 57402  97.2927  26.0923 0008431 114.8462 245.3655 15.27819033131486"
      },
      "geometry": {
        "type": "Point",
        "coordinates": [
          -154.02611224723324,
          -4.174595409348304
        ]
      }
    },
    {
      "type": "Feature",
      "properties": {
        "norad_id": 57490,
        "name": "FENGYUN 3F",
        "group": "weather",
        "lat": -9.938701379218477,
        "lon": -136.80814585906657,
        "alt_km": 830.0002457761757,
        "timestamp": "2025-12-02T06:27:52.664221+00:00",
        "meta_object_name": "FENGYUN 3F",
        "meta_object_id": "2023-111A",
        "meta_epoch": "2025-12-01T19:25:32.157408",
        "meta_mean_motion": 14.19888722,
        "meta_eccentricity": 7.14e-05,
        "meta_inclination": 98.7097,
        "meta_ra_of_asc_node": 44.2785,
        "meta_arg_of_pericenter": 83.5175,
        "meta_mean_anomaly": 276.6083,
        "meta_ephemeris_type": 0,
        "meta_classification_type": "U",
        "meta_norad_cat_id": 57490,
        "meta_element_set_no": 999,
        "meta_rev_at_epoch": 12085,
        "meta_bstar": 6.3158e-05,
        "meta_mean_motion_dot": 9e-07,
        "meta_mean_motion_ddot": 0,
        "tle_line1": "1 57490U 23111A   25335.80939997  .00000090  00000+0  63158-4 0  9990",
        "tle_line2": "2 57490  98.7097  44.2785 0000714  83.5175 276.6083 14.19888722120856"
      },
      "geometry": {
        "type": "Point",
        "coordinates": [
          -136.80814585906657,
          -9.938701379218477
        ]
      }
    },
    {
      "type": "Feature",
      "properties": {
        "norad_id": 58584,
        "name": "ARKTIKA-M 2",
        "group": "weather",
        "lat": 36.84523694141229,
        "lon": -26.21010367458892,
        "alt_km": 18909.305070612154,
        "timestamp": "2025-12-02T06:27:52.664233+00:00",
        "meta_object_name": "ARKTIKA-M 2",
        "meta_object_id": "2023-198A",
        "meta_epoch": "2025-12-01T08:43:04.634112",
        "meta_mean_motion": 2.00605427,
        "meta_eccentricity": 0.6864029,
        "meta_inclination": 63.2218,
        "meta_ra_of_asc_node": 176.1298,
        "meta_arg_of_pericenter": 268.1507,
        "meta_mean_anomaly": 18.8441,
        "meta_ephemeris_type": 0,
        "meta_classification_type": "U",
        "meta_norad_cat_id": 58584,
        "meta_element_set_no": 999,
        "meta_rev_at_epoch": 1435,
        "meta_bstar": 0,
        "meta_mean_motion_dot": 2.37e-06,
        "meta_mean_motion_ddot": 0,
        "tle_line1": "1 58584U 23198A   25335.36324808  .00000237  00000+0  00000+0 0  9995",
        "tle_line2": "2 58584  63.2218 176.1298 6864029 268.1507  18.8441  2.00605427 14357"
      },
      "geometry": {
        "type": "Point",
        "coordinates": [
          -26.21010367458892,
          36.84523694141229
        ]
      }
    },
    {
      "type": "Feature",
      "properties": {
        "norad_id": 58645,
        "name": "TIANMU-1 11",
        "group": "weather",
        "lat": 46.303633824226516,
        "lon": -176.14474272509077,
        "alt_km": 493.5013226069377,
        "timestamp": "2025-12-02T06:27:52.664245+00:00",
        "meta_object_name": "TIANMU-1 11",
        "meta_object_id": "2023-205A",
        "meta_epoch": "2025-12-01T20:25:49.431648",
        "meta_mean_motion": 15.24389586,
        "meta_eccentricity": 0.0009033,
        "meta_inclination": 97.3619,
        "meta_ra_of_asc_node": 355.6678,
        "meta_arg_of_pericenter": 352.7112,
        "meta_mean_anomaly": 7.3993,
        "meta_ephemeris_type": 0,
        "meta_classification_type": "U",
        "meta_norad_cat_id": 58645,
        "meta_element_set_no": 999,
        "meta_rev_at_epoch": 10743,
        "meta_bstar": 0.00025582,
        "meta_mean_motion_dot": 6.204e-05,
        "meta_mean_motion_ddot": 0,
        "tle_line1": "1 58645U 23205A   25335.85126657  .00006204  00000+0  25582-3 0  9994",
        "tle_line2": "2 58645  97.3619 355.6678 0009033 352.7112   7.3993 15.24389586107438"
      },
      "geometry": {
        "type": "Point",
        "coordinates": [
          -176.14474272509077,
          46.303633824226516
        ]
      }
    },
    {
      "type": "Feature",
      "properties": {
        "norad_id": 58646,
        "name": "TIANMU-1 12",
        "group": "weather",
        "lat": -10.95150748312546,
        "lon": -2.67922796564274,
        "alt_km": 492.6857498941963,
        "timestamp": "2025-12-02T06:27:52.664255+00:00",
        "meta_object_name": "TIANMU-1 12",
        "meta_object_id": "2023-205B",
        "meta_epoch": "2025-12-01T21:03:35.665632",
        "meta_mean_motion": 15.24302022,
        "meta_eccentricity": 0.0006813,
        "meta_inclination": 97.3606,
        "meta_ra_of_asc_node": 355.5026,
        "meta_arg_of_pericenter": 338.59,
        "meta_mean_anomaly": 21.5052,
        "meta_ephemeris_type": 0,
        "meta_classification_type": "U",
        "meta_norad_cat_id": 58646,
        "meta_element_set_no": 999,
        "meta_rev_at_epoch": 10742,
        "meta_bstar": 0.0003005,
        "meta_mean_motion_dot": 7.279e-05,
        "meta_mean_motion_ddot": 0,
        "tle_line1": "1 58646U 23205B   25335.87749613  .00007279  00000+0  30050-3 0  9999",
        "tle_line2": "2 58646  97.3606 355.5026 0006813 338.5900  21.5052 15.24302022107424"
      },
      "geometry": {
        "type": "Point",
        "coordinates": [
          -2.67922796564274,
          -10.95150748312546
        ]
      }
    }
  ]
}